IRIDIUM 163             
1 43575U 18061G   26156.97983789  .00000095  00000+0  26856-4 0  9994
2 43575  86.3960  61.4086 0002374  81.8588 278.2877 14.34220402411770
IRIDIUM 156             
1 43576U 18061H   26156.81493640  .00000250  00000+0  82303-4 0  9992
2 43576  86.3966  61.4842 0002152  79.6271 280.5168 14.34218321411748
IRIDIUM 164             
1 43577U 18061J   26156.44706406  .00000154  00000+0  47806-4 0  9991
2 43577  86.3967  61.6782 0002066  88.4479 271.6953 14.34216769411733
IRIDIUM 159             
1 43578U 18061K   26156.97350118  .00000023  00000+0  10896-5 0  9990
2 43578  86.3964  61.3950 0002181  85.8653 274.2792 14.34217482411775
IRIDIUM 180             
1 43922U 19002A   26156.48461765  .00000030  00000+0  36964-5 0  9998
2 43922  86.3973 358.4908 0002235  88.6496 271.4956 14.34217757387315
IRIDIUM 176             
1 43923U 19002B   26156.06073615  .00001227  00000+0  19074-3 0  9996
2 43923  86.6096 358.6135 0002234  83.0034 277.1437 14.72250840397461
IRIDIUM 168             
1 43924U 19002C   26156.47827513 -.00000007  00000+0 -95150-5 0  9994
2 43924  86.3972 358.5708 0002072  89.8573 270.2860 14.34217322387299
IRIDIUM 173             
1 43925U 19002D   26156.25628138  .00000158  00000+0  49476-4 0  9997
2 43925  86.3971 358.5521 0002234  86.2879 273.8572 14.34219150387247
IRIDIUM 169             
1 43926U 19002E   26156.35820576  .00000312  00000+0  95484-4 0  9991
2 43926  86.4236  30.1387 0002265  70.5362 289.6081 14.38608885388526
IRIDIUM 172             
1 43927U 19002F   26156.31971032  .00000038  00000+0  66320-5 0  9995
2 43927  86.3972 358.5340 0002282  89.5100 270.6358 14.34217654387261
IRIDIUM 175             
1 43928U 19002G   26156.83886399  .00000379  00000+0  10590-3 0  9998
2 43928  86.4506 295.2660 0001109 237.1771 122.9324 14.43606434397340
IRIDIUM 171             
1 43929U 19002H   26156.50998758  .00000017  00000+0 -10739-5 0  9993
2 43929  86.3979 358.7591 0001917  86.4524 273.6891 14.34217497387282
IRIDIUM 170             
1 43930U 19002J   26156.47472707  .00000244  00000+0  34773-4 0  9996
2 43930  86.6091 358.4434 0002393  91.0610 269.0882 14.72249934397533
IRIDIUM 167             
1 43931U 19002K   26156.50364453  .00000017  00000+0 -10751-5 0  9999
2 43931  86.3974 358.4792 0001886  84.6973 275.4438 14.34217607387283
IRIDIUM 181             
1 56726U 23068S   26156.45912037  .00000352  00000+0  98500-4 0  9991
2 56726  86.4503  61.6926 0002271  89.8948 270.2513 14.43308035160741
IRIDIUM 177             
1 56727U 23068T   26156.01903997  .00000489  00000+0  60813-4 0  9996
2 56727  86.1958 334.5722 0002435  86.4963 273.6537 14.80230899164561
IRIDIUM 174             
1 56728U 23068U   26156.05455637  .00000414  00000+0  61731-4 0  9992
2 56728  86.6100 358.7643 0002423  89.6216 270.5279 14.72253240164238
IRIDIUM 178             
1 56729U 23068V   26156.07576705  .00001069  00000+0  13718-3 0  9993
2 56729  86.6547  30.4218 0002495  88.9380 271.2128 14.80245362164572
IRIDIUM 179             
1 56730U 23068W   26155.66480721  .00001187  00000+0  15277-3 0  9994
2 56730  86.6785  39.5356 0002336  85.6761 274.4728 14.80241824164516
